{
  "type": "FeatureCollection",
  "features": [
    {
      "type": "Feature",
      "geometry": {
        "type": "Polygon",
        "coordinates": [
          [
            [
              -5.25,
              57.95
            ],
            [
              -5.25,
              58.06
            ],
            [
              -5.45,
              58.06
            ],
            [
              -5.45,
              57.95
            ],
            [
              -5.25,
              57.95
            ]
          ]
        ]
      },
      "properties": {
        "region_id": "summer_isles_local",
        "source": "existing screening_bbox",
        "is_exploratory": true,
        "new_heldout_date_required": true
      }
    }
  ]
}
