{
  "type": "FeatureCollection",
  "features": [
    {
      "type": "Feature",
      "geometry": {
        "type": "MultiPolygon",
        "coordinates": [
          [
            [
              [
                -7.640624999999992,
                55.376041666666666
              ],
              [
                -7.639583333333325,
                55.376041666666666
              ],
              [
                -7.639583333333325,
                55.37499999999999
              ],
              [
                -7.640624999999992,
                55.37499999999999
              ],
              [
                -7.640624999999992,
                55.376041666666666
              ]
            ]
          ],
          [
            [
              [
                -7.643749999999993,
                55.376041666666666
              ],
              [
                -7.643749999999993,
                55.37708333333333
              ],
              [
                -7.640624999999992,
                55.37708333333333
              ],
              [
                -7.640624999999992,
                55.376041666666666
              ],
              [
                -7.643749999999993,
                55.376041666666666
              ]
            ]
          ],
          [
            [
              [
                -7.531249999999992,
                55.416666666666664
              ],
              [
                -7.529166666666659,
                55.416666666666664
              ],
              [
                -7.529166666666659,
                55.415625
              ],
              [
                -7.531249999999992,
                55.415625
              ],
              [
                -7.531249999999992,
                55.416666666666664
              ]
            ]
          ],
          [
            [
              [
                -7.478124999999992,
                55.41979166666666
              ],
              [
                -7.477083333333326,
                55.41979166666666
              ],
              [
                -7.477083333333326,
                55.418749999999996
              ],
              [
                -7.478124999999992,
                55.418749999999996
              ],
              [
                -7.478124999999992,
                55.41979166666666
              ]
            ]
          ],
          [
            [
              [
                -7.405208333333325,
                55.430208333333326
              ],
              [
                -7.410416666666659,
                55.430208333333326
              ],
              [
                -7.410416666666659,
                55.43125
              ],
              [
                -7.415624999999992,
                55.43125
              ],
              [
                -7.415624999999992,
                55.432291666666664
              ],
              [
                -7.420833333333325,
                55.432291666666664
              ],
              [
                -7.420833333333325,
                55.43333333333333
              ],
              [
                -7.424999999999993,
                55.43333333333333
              ],
              [
                -7.424999999999993,
                55.43541666666666
              ],
              [
                -7.426041666666659,
                55.43541666666666
              ],
              [
                -7.426041666666659,
                55.43645833333333
              ],
              [
                -7.4281249999999925,
                55.43645833333333
              ],
              [
                -7.4281249999999925,
                55.43541666666666
              ],
              [
                -7.429166666666659,
                55.43541666666666
              ],
              [
                -7.429166666666659,
                55.434374999999996
              ],
              [
                -7.432291666666659,
                55.434374999999996
              ],
              [
                -7.432291666666659,
                55.43333333333333
              ],
              [
                -7.435416666666659,
                55.43333333333333
              ],
              [
                -7.435416666666659,
                55.434374999999996
              ],
              [
                -7.444791666666659,
                55.434374999999996
              ],
              [
                -7.444791666666659,
                55.43333333333333
              ],
              [
                -7.447916666666659,
                55.43333333333333
              ],
              [
                -7.447916666666659,
                55.434374999999996
              ],
              [
                -7.453124999999992,
                55.434374999999996
              ],
              [
                -7.453124999999992,
                55.43333333333333
              ],
              [
                -7.455208333333326,
                55.43333333333333
              ],
              [
                -7.455208333333326,
                55.434374999999996
              ],
              [
                -7.4593749999999925,
                55.434374999999996
              ],
              [
                -7.4593749999999925,
                55.43333333333333
              ],
              [
                -7.467708333333325,
                55.43333333333333
              ],
              [
                -7.467708333333325,
                55.432291666666664
              ],
              [
                -7.469791666666659,
                55.432291666666664
              ],
              [
                -7.469791666666659,
                55.43125
              ],
              [
                -7.471874999999993,
                55.43125
              ],
              [
                -7.471874999999993,
                55.432291666666664
              ],
              [
                -7.472916666666659,
                55.432291666666664
              ],
              [
                -7.472916666666659,
                55.43125
              ],
              [
                -7.473958333333326,
                55.43125
              ],
              [
                -7.473958333333326,
                55.42916666666666
              ],
              [
                -7.476041666666659,
                55.42916666666666
              ],
              [
                -7.476041666666659,
                55.428124999999994
              ],
              [
                -7.480208333333326,
                55.428124999999994
              ],
              [
                -7.480208333333326,
                55.42708333333333
              ],
              [
                -7.482291666666659,
                55.42708333333333
              ],
              [
                -7.482291666666659,
                55.425
              ],
              [
                -7.480208333333326,
                55.425
              ],
              [
                -7.480208333333326,
                55.42395833333333
              ],
              [
                -7.478124999999992,
                55.42395833333333
              ],
              [
                -7.478124999999992,
                55.422916666666666
              ],
              [
                -7.481249999999992,
                55.422916666666666
              ],
              [
                -7.481249999999992,
                55.42395833333333
              ],
              [
                -7.487499999999993,
                55.42395833333333
              ],
              [
                -7.487499999999993,
                55.42187499999999
              ],
              [
                -7.488541666666659,
                55.42187499999999
              ],
              [
                -7.488541666666659,
                55.42083333333333
              ],
              [
                -7.493749999999992,
                55.42083333333333
              ],
              [
                -7.493749999999992,
                55.41979166666666
              ],
              [
                -7.504166666666659,
                55.41979166666666
              ],
              [
                -7.504166666666659,
                55.41770833333333
              ],
              [
                -7.505208333333326,
                55.41770833333333
              ],
              [
                -7.505208333333326,
                55.418749999999996
              ],
              [
                -7.509374999999992,
                55.418749999999996
              ],
              [
                -7.509374999999992,
                55.41979166666666
              ],
              [
                -7.522916666666659,
                55.41979166666666
              ],
              [
                -7.522916666666659,
                55.418749999999996
              ],
              [
                -7.526041666666659,
                55.418749999999996
              ],
              [
                -7.526041666666659,
                55.41770833333333
              ],
              [
                -7.533333333333326,
                55.41770833333333
              ],
              [
                -7.533333333333326,
                55.416666666666664
              ],
              [
                -7.536458333333326,
                55.416666666666664
              ],
              [
                -7.536458333333326,
                55.41770833333333
              ],
              [
                -7.541666666666659,
                55.41770833333333
              ],
              [
                -7.541666666666659,
                55.418749999999996
              ],
              [
                -7.545833333333325,
                55.418749999999996
              ],
              [
                -7.545833333333325,
                55.41979166666666
              ],
              [
                -7.549999999999993,
                55.41979166666666
              ],
              [
                -7.549999999999993,
                55.41770833333333
              ],
              [
                -7.548958333333326,
                55.41770833333333
              ],
              [
                -7.548958333333326,
                55.416666666666664
              ],
              [
                -7.551041666666659,
                55.416666666666664
              ],
              [
                -7.551041666666659,
                55.41770833333333
              ],
              [
                -7.558333333333326,
                55.41770833333333
              ],
              [
                -7.558333333333326,
                55.416666666666664
              ],
              [
                -7.559374999999992,
                55.416666666666664
              ],
              [
                -7.559374999999992,
                55.415625
              ],
              [
                -7.563541666666659,
                55.415625
              ],
              [
                -7.563541666666659,
                55.412499999999994
              ],
              [
                -7.5843749999999925,
                55.412499999999994
              ],
              [
                -7.5843749999999925,
                55.41145833333333
              ],
              [
                -7.587499999999992,
                55.41145833333333
              ],
              [
                -7.587499999999992,
                55.41041666666666
              ],
              [
                -7.589583333333326,
                55.41041666666666
              ],
              [
                -7.589583333333326,
                55.409375
              ],
              [
                -7.590624999999992,
                55.409375
              ],
              [
                -7.590624999999992,
                55.40833333333333
              ],
              [
                -7.596874999999993,
                55.40833333333333
              ],
              [
                -7.596874999999993,
                55.409375
              ],
              [
                -7.604166666666659,
                55.409375
              ],
              [
                -7.604166666666659,
                55.41041666666666
              ],
              [
                -7.607291666666659,
                55.41041666666666
              ],
              [
                -7.607291666666659,
                55.40624999999999
              ],
              [
                -7.608333333333325,
                55.40624999999999
              ],
              [
                -7.608333333333325,
                55.40416666666666
              ],
              [
                -7.609374999999992,
                55.40416666666666
              ],
              [
                -7.609374999999992,
                55.403124999999996
              ],
              [
                -7.610416666666659,
                55.403124999999996
              ],
              [
                -7.610416666666659,
                55.401041666666664
              ],
              [
                -7.611458333333326,
                55.401041666666664
              ],
              [
                -7.611458333333326,
                55.4
              ],
              [
                -7.612499999999993,
                55.4
              ],
              [
                -7.612499999999993,
                55.398958333333326
              ],
              [
                -7.614583333333326,
                55.398958333333326
              ],
              [
                -7.614583333333326,
                55.39791666666666
              ],
              [
                -7.617708333333326,
                55.39791666666666
              ],
              [
                -7.617708333333326,
                55.396874999999994
              ],
              [
                -7.618749999999992,
                55.396874999999994
              ],
              [
                -7.618749999999992,
                55.39479166666666
              ],
              [
                -7.620833333333326,
                55.39479166666666
              ],
              [
                -7.620833333333326,
                55.39375
              ],
              [
                -7.623958333333325,
                55.39375
              ],
              [
                -7.623958333333325,
                55.39270833333333
              ],
              [
                -7.624999999999992,
                55.39270833333333
              ],
              [
                -7.624999999999992,
                55.391666666666666
              ],
              [
                -7.626041666666659,
                55.391666666666666
              ],
              [
                -7.626041666666659,
                55.39062499999999
              ],
              [
                -7.628124999999993,
                55.39062499999999
              ],
              [
                -7.628124999999993,
                55.391666666666666
              ],
              [
                -7.629166666666659,
                55.391666666666666
              ],
              [
                -7.629166666666659,
                55.39270833333333
              ],
              [
                -7.632291666666659,
                55.39270833333333
              ],
              [
                -7.632291666666659,
                55.391666666666666
              ],
              [
                -7.630208333333326,
                55.391666666666666
              ],
              [
                -7.630208333333326,
                55.39062499999999
              ],
              [
                -7.635416666666659,
                55.39062499999999
              ],
              [
                -7.635416666666659,
                55.38958333333333
              ],
              [
                -7.640624999999992,
                55.38958333333333
              ],
              [
                -7.640624999999992,
                55.38854166666666
              ],
              [
                -7.641666666666659,
                55.38854166666666
              ],
              [
                -7.641666666666659,
                55.38958333333333
              ],
              [
                -7.642708333333326,
                55.38958333333333
              ],
              [
                -7.642708333333326,
                55.38854166666666
              ],
              [
                -7.644791666666659,
                55.38854166666666
              ],
              [
                -7.644791666666659,
                55.387499999999996
              ],
              [
                -7.6468749999999925,
                55.387499999999996
              ],
              [
                -7.6468749999999925,
                55.38645833333333
              ],
              [
                -7.647916666666659,
                55.38645833333333
              ],
              [
                -7.647916666666659,
                55.384375
              ],
              [
                -7.649999999999992,
                55.384375
              ],
              [
                -7.649999999999992,
                55.383333333333326
              ],
              [
                -7.647916666666659,
                55.383333333333326
              ],
              [
                -7.647916666666659,
                55.38229166666666
              ],
              [
                -7.649999999999992,
                55.38229166666666
              ],
              [
                -7.649999999999992,
                55.38020833333333
              ],
              [
                -7.652083333333326,
                55.38020833333333
              ],
              [
                -7.652083333333326,
                55.37916666666666
              ],
              [
                -7.654166666666659,
                55.37916666666666
              ],
              [
                -7.654166666666659,
                55.378125
              ],
              [
                -7.655208333333325,
                55.378125
              ],
              [
                -7.655208333333325,
                55.37708333333333
              ],
              [
                -7.654166666666659,
                55.37708333333333
              ],
              [
                -7.654166666666659,
                55.376041666666666
              ],
              [
                -7.655208333333325,
                55.376041666666666
              ],
              [
                -7.655208333333325,
                55.37499999999999
              ],
              [
                -7.657291666666659,
                55.37499999999999
              ],
              [
                -7.657291666666659,
                55.37395833333333
              ],
              [
                -7.658333333333326,
                55.37395833333333
              ],
              [
                -7.658333333333326,
                55.37499999999999
              ],
              [
                -7.6624999999999925,
                55.37499999999999
              ],
              [
                -7.6624999999999925,
                55.376041666666666
              ],
              [
                -7.664583333333326,
                55.376041666666666
              ],
              [
                -7.664583333333326,
                55.37499999999999
              ],
              [
                -7.673958333333326,
                55.37499999999999
              ],
              [
                -7.673958333333326,
                55.376041666666666
              ],
              [
                -7.679166666666659,
                55.376041666666666
              ],
              [
                -7.679166666666659,
                55.37395833333333
              ],
              [
                -7.685416666666659,
                55.37395833333333
              ],
              [
                -7.685416666666659,
                55.37291666666666
              ],
              [
                -7.689583333333326,
                55.37291666666666
              ],
              [
                -7.689583333333326,
                55.371874999999996
              ],
              [
                -7.692708333333326,
                55.371874999999996
              ],
              [
                -7.692708333333326,
                55.37083333333333
              ],
              [
                -7.7,
                55.37083333333333
              ],
              [
                -7.7,
                55.55
              ],
              [
                -7.4,
                55.55
              ],
              [
                -7.4,
                55.42916666666666
              ],
              [
                -7.405208333333325,
                55.42916666666666
              ],
              [
                -7.405208333333325,
                55.430208333333326
              ]
            ],
            [
              [
                -7.435416666666659,
                55.43645833333333
              ],
              [
                -7.432291666666659,
                55.43645833333333
              ],
              [
                -7.432291666666659,
                55.43749999999999
              ],
              [
                -7.434374999999992,
                55.43749999999999
              ],
              [
                -7.434374999999992,
                55.438541666666666
              ],
              [
                -7.435416666666659,
                55.438541666666666
              ],
              [
                -7.435416666666659,
                55.43645833333333
              ]
            ],
            [
              [
                -7.624999999999992,
                55.43749999999999
              ],
              [
                -7.627083333333326,
                55.43749999999999
              ],
              [
                -7.627083333333326,
                55.43645833333333
              ],
              [
                -7.629166666666659,
                55.43645833333333
              ],
              [
                -7.629166666666659,
                55.434374999999996
              ],
              [
                -7.623958333333325,
                55.434374999999996
              ],
              [
                -7.623958333333325,
                55.43645833333333
              ],
              [
                -7.624999999999992,
                55.43645833333333
              ],
              [
                -7.624999999999992,
                55.43749999999999
              ]
            ],
            [
              [
                -7.461458333333326,
                55.43541666666666
              ],
              [
                -7.465624999999992,
                55.43541666666666
              ],
              [
                -7.465624999999992,
                55.434374999999996
              ],
              [
                -7.461458333333326,
                55.434374999999996
              ],
              [
                -7.461458333333326,
                55.43541666666666
              ]
            ],
            [
              [
                -7.649999999999992,
                55.42916666666666
              ],
              [
                -7.645833333333326,
                55.42916666666666
              ],
              [
                -7.645833333333326,
                55.430208333333326
              ],
              [
                -7.644791666666659,
                55.430208333333326
              ],
              [
                -7.644791666666659,
                55.43125
              ],
              [
                -7.642708333333326,
                55.43125
              ],
              [
                -7.642708333333326,
                55.432291666666664
              ],
              [
                -7.647916666666659,
                55.432291666666664
              ],
              [
                -7.647916666666659,
                55.43125
              ],
              [
                -7.648958333333326,
                55.43125
              ],
              [
                -7.648958333333326,
                55.430208333333326
              ],
              [
                -7.652083333333326,
                55.430208333333326
              ],
              [
                -7.652083333333326,
                55.428124999999994
              ],
              [
                -7.649999999999992,
                55.428124999999994
              ],
              [
                -7.649999999999992,
                55.42916666666666
              ]
            ],
            [
              [
                -7.549999999999993,
                55.432291666666664
              ],
              [
                -7.551041666666659,
                55.432291666666664
              ],
              [
                -7.551041666666659,
                55.43125
              ],
              [
                -7.549999999999993,
                55.43125
              ],
              [
                -7.549999999999993,
                55.432291666666664
              ]
            ],
            [
              [
                -7.555208333333326,
                55.43125
              ],
              [
                -7.557291666666659,
                55.43125
              ],
              [
                -7.557291666666659,
                55.430208333333326
              ],
              [
                -7.555208333333326,
                55.430208333333326
              ],
              [
                -7.555208333333326,
                55.43125
              ]
            ],
            [
              [
                -7.551041666666659,
                55.42916666666666
              ],
              [
                -7.554166666666659,
                55.42916666666666
              ],
              [
                -7.554166666666659,
                55.428124999999994
              ],
              [
                -7.551041666666659,
                55.428124999999994
              ],
              [
                -7.551041666666659,
                55.42916666666666
              ]
            ],
            [
              [
                -7.653124999999992,
                55.428124999999994
              ],
              [
                -7.654166666666659,
                55.428124999999994
              ],
              [
                -7.654166666666659,
                55.42708333333333
              ],
              [
                -7.653124999999992,
                55.42708333333333
              ],
              [
                -7.653124999999992,
                55.428124999999994
              ]
            ],
            [
              [
                -7.545833333333325,
                55.42708333333333
              ],
              [
                -7.547916666666659,
                55.42708333333333
              ],
              [
                -7.547916666666659,
                55.42604166666666
              ],
              [
                -7.551041666666659,
                55.42604166666666
              ],
              [
                -7.551041666666659,
                55.42395833333333
              ],
              [
                -7.547916666666659,
                55.42395833333333
              ],
              [
                -7.547916666666659,
                55.425
              ],
              [
                -7.545833333333325,
                55.425
              ],
              [
                -7.545833333333325,
                55.42708333333333
              ]
            ],
            [
              [
                -7.643749999999993,
                55.39270833333333
              ],
              [
                -7.644791666666659,
                55.39270833333333
              ],
              [
                -7.644791666666659,
                55.391666666666666
              ],
              [
                -7.643749999999993,
                55.391666666666666
              ],
              [
                -7.643749999999993,
                55.39270833333333
              ]
            ]
          ]
        ]
      },
      "properties": {
        "role": "deepwater_reference",
        "selection": "coarse depth >50 m outside reporting",
        "source": "/Users/andrei/oceanstream/sd-data-ingest/.cache/coastal/bathy/donegal/emodnet_mean_depth.tif",
        "reflectance_inspected_for_selection": false,
        "is_provisional": true
      }
    }
  ]
}
