{
  "type": "FeatureCollection",
  "features": [
    {
      "type": "Feature",
      "geometry": {
        "type": "MultiPolygon",
        "coordinates": [
          [
            [
              [
                -7.640625,
                55.375
              ],
              [
                -7.640625,
                55.376041667
              ],
              [
                -7.639583333,
                55.376041667
              ],
              [
                -7.639583333,
                55.375
              ],
              [
                -7.640625,
                55.375
              ]
            ]
          ],
          [
            [
              [
                -7.640625,
                55.376041667
              ],
              [
                -7.64375,
                55.376041667
              ],
              [
                -7.64375,
                55.377083333
              ],
              [
                -7.640625,
                55.377083333
              ],
              [
                -7.640625,
                55.376041667
              ]
            ]
          ],
          [
            [
              [
                -7.53125,
                55.415625
              ],
              [
                -7.53125,
                55.416666667
              ],
              [
                -7.529166667,
                55.416666667
              ],
              [
                -7.529166667,
                55.415625
              ],
              [
                -7.53125,
                55.415625
              ]
            ]
          ],
          [
            [
              [
                -7.478125,
                55.419791667
              ],
              [
                -7.477083333,
                55.419791667
              ],
              [
                -7.477083333,
                55.41875
              ],
              [
                -7.478125,
                55.41875
              ],
              [
                -7.478125,
                55.419791667
              ]
            ]
          ],
          [
            [
              [
                -7.415625,
                55.432291667
              ],
              [
                -7.420833333,
                55.432291667
              ],
              [
                -7.420833333,
                55.433333333
              ],
              [
                -7.425,
                55.433333333
              ],
              [
                -7.425,
                55.435416667
              ],
              [
                -7.426041667,
                55.435416667
              ],
              [
                -7.426041667,
                55.436458333
              ],
              [
                -7.428125,
                55.436458333
              ],
              [
                -7.428125,
                55.435416667
              ],
              [
                -7.429166667,
                55.435416667
              ],
              [
                -7.429166667,
                55.434375
              ],
              [
                -7.432291667,
                55.434375
              ],
              [
                -7.432291667,
                55.433333333
              ],
              [
                -7.435416667,
                55.433333333
              ],
              [
                -7.435416667,
                55.434375
              ],
              [
                -7.444791667,
                55.434375
              ],
              [
                -7.444791667,
                55.433333333
              ],
              [
                -7.447916667,
                55.433333333
              ],
              [
                -7.447916667,
                55.434375
              ],
              [
                -7.453125,
                55.434375
              ],
              [
                -7.453125,
                55.433333333
              ],
              [
                -7.455208333,
                55.433333333
              ],
              [
                -7.455208333,
                55.434375
              ],
              [
                -7.459375,
                55.434375
              ],
              [
                -7.459375,
                55.433333333
              ],
              [
                -7.467708333,
                55.433333333
              ],
              [
                -7.467708333,
                55.432291667
              ],
              [
                -7.469791667,
                55.432291667
              ],
              [
                -7.469791667,
                55.43125
              ],
              [
                -7.471875,
                55.43125
              ],
              [
                -7.471875,
                55.432291667
              ],
              [
                -7.472916667,
                55.432291667
              ],
              [
                -7.472916667,
                55.43125
              ],
              [
                -7.473958333,
                55.43125
              ],
              [
                -7.473958333,
                55.429166667
              ],
              [
                -7.476041667,
                55.429166667
              ],
              [
                -7.476041667,
                55.428125
              ],
              [
                -7.480208333,
                55.428125
              ],
              [
                -7.480208333,
                55.427083333
              ],
              [
                -7.482291667,
                55.427083333
              ],
              [
                -7.482291667,
                55.425
              ],
              [
                -7.480208333,
                55.425
              ],
              [
                -7.480208333,
                55.423958333
              ],
              [
                -7.478125,
                55.423958333
              ],
              [
                -7.478125,
                55.422916667
              ],
              [
                -7.48125,
                55.422916667
              ],
              [
                -7.48125,
                55.423958333
              ],
              [
                -7.4875,
                55.423958333
              ],
              [
                -7.4875,
                55.421875
              ],
              [
                -7.488541667,
                55.421875
              ],
              [
                -7.488541667,
                55.420833333
              ],
              [
                -7.49375,
                55.420833333
              ],
              [
                -7.49375,
                55.419791667
              ],
              [
                -7.504166667,
                55.419791667
              ],
              [
                -7.504166667,
                55.417708333
              ],
              [
                -7.505208333,
                55.417708333
              ],
              [
                -7.505208333,
                55.41875
              ],
              [
                -7.509375,
                55.41875
              ],
              [
                -7.509375,
                55.419791667
              ],
              [
                -7.522916667,
                55.419791667
              ],
              [
                -7.522916667,
                55.41875
              ],
              [
                -7.526041667,
                55.41875
              ],
              [
                -7.526041667,
                55.417708333
              ],
              [
                -7.533333333,
                55.417708333
              ],
              [
                -7.533333333,
                55.416666667
              ],
              [
                -7.536458333,
                55.416666667
              ],
              [
                -7.536458333,
                55.417708333
              ],
              [
                -7.541666667,
                55.417708333
              ],
              [
                -7.541666667,
                55.41875
              ],
              [
                -7.545833333,
                55.41875
              ],
              [
                -7.545833333,
                55.419791667
              ],
              [
                -7.55,
                55.419791667
              ],
              [
                -7.55,
                55.417708333
              ],
              [
                -7.548958333,
                55.417708333
              ],
              [
                -7.548958333,
                55.416666667
              ],
              [
                -7.551041667,
                55.416666667
              ],
              [
                -7.551041667,
                55.417708333
              ],
              [
                -7.558333333,
                55.417708333
              ],
              [
                -7.558333333,
                55.416666667
              ],
              [
                -7.559375,
                55.416666667
              ],
              [
                -7.559375,
                55.415625
              ],
              [
                -7.563541667,
                55.415625
              ],
              [
                -7.563541667,
                55.4125
              ],
              [
                -7.584375,
                55.4125
              ],
              [
                -7.584375,
                55.411458333
              ],
              [
                -7.5875,
                55.411458333
              ],
              [
                -7.5875,
                55.410416667
              ],
              [
                -7.589583333,
                55.410416667
              ],
              [
                -7.589583333,
                55.409375
              ],
              [
                -7.590625,
                55.409375
              ],
              [
                -7.590625,
                55.408333333
              ],
              [
                -7.596875,
                55.408333333
              ],
              [
                -7.596875,
                55.409375
              ],
              [
                -7.604166667,
                55.409375
              ],
              [
                -7.604166667,
                55.410416667
              ],
              [
                -7.607291667,
                55.410416667
              ],
              [
                -7.607291667,
                55.40625
              ],
              [
                -7.608333333,
                55.40625
              ],
              [
                -7.608333333,
                55.404166667
              ],
              [
                -7.609375,
                55.404166667
              ],
              [
                -7.609375,
                55.403125
              ],
              [
                -7.610416667,
                55.403125
              ],
              [
                -7.610416667,
                55.401041667
              ],
              [
                -7.611458333,
                55.401041667
              ],
              [
                -7.611458333,
                55.4
              ],
              [
                -7.6125,
                55.4
              ],
              [
                -7.6125,
                55.398958333
              ],
              [
                -7.614583333,
                55.398958333
              ],
              [
                -7.614583333,
                55.397916667
              ],
              [
                -7.617708333,
                55.397916667
              ],
              [
                -7.617708333,
                55.396875
              ],
              [
                -7.61875,
                55.396875
              ],
              [
                -7.61875,
                55.394791667
              ],
              [
                -7.620833333,
                55.394791667
              ],
              [
                -7.620833333,
                55.39375
              ],
              [
                -7.623958333,
                55.39375
              ],
              [
                -7.623958333,
                55.392708333
              ],
              [
                -7.625,
                55.392708333
              ],
              [
                -7.625,
                55.391666667
              ],
              [
                -7.626041667,
                55.391666667
              ],
              [
                -7.626041667,
                55.390625
              ],
              [
                -7.628125,
                55.390625
              ],
              [
                -7.628125,
                55.391666667
              ],
              [
                -7.629166667,
                55.391666667
              ],
              [
                -7.629166667,
                55.392708333
              ],
              [
                -7.632291667,
                55.392708333
              ],
              [
                -7.632291667,
                55.391666667
              ],
              [
                -7.630208333,
                55.391666667
              ],
              [
                -7.630208333,
                55.390625
              ],
              [
                -7.635416667,
                55.390625
              ],
              [
                -7.635416667,
                55.389583333
              ],
              [
                -7.640625,
                55.389583333
              ],
              [
                -7.640625,
                55.388541667
              ],
              [
                -7.641666667,
                55.388541667
              ],
              [
                -7.641666667,
                55.389583333
              ],
              [
                -7.642708333,
                55.389583333
              ],
              [
                -7.642708333,
                55.388541667
              ],
              [
                -7.644791667,
                55.388541667
              ],
              [
                -7.644791667,
                55.3875
              ],
              [
                -7.646875,
                55.3875
              ],
              [
                -7.646875,
                55.386458333
              ],
              [
                -7.647916667,
                55.386458333
              ],
              [
                -7.647916667,
                55.384375
              ],
              [
                -7.65,
                55.384375
              ],
              [
                -7.65,
                55.383333333
              ],
              [
                -7.647916667,
                55.383333333
              ],
              [
                -7.647916667,
                55.382291667
              ],
              [
                -7.65,
                55.382291667
              ],
              [
                -7.65,
                55.380208333
              ],
              [
                -7.652083333,
                55.380208333
              ],
              [
                -7.652083333,
                55.379166667
              ],
              [
                -7.654166667,
                55.379166667
              ],
              [
                -7.654166667,
                55.378125
              ],
              [
                -7.655208333,
                55.378125
              ],
              [
                -7.655208333,
                55.377083333
              ],
              [
                -7.654166667,
                55.377083333
              ],
              [
                -7.654166667,
                55.376041667
              ],
              [
                -7.655208333,
                55.376041667
              ],
              [
                -7.655208333,
                55.375
              ],
              [
                -7.657291667,
                55.375
              ],
              [
                -7.657291667,
                55.373958333
              ],
              [
                -7.658333333,
                55.373958333
              ],
              [
                -7.658333333,
                55.375
              ],
              [
                -7.6625,
                55.375
              ],
              [
                -7.6625,
                55.376041667
              ],
              [
                -7.664583333,
                55.376041667
              ],
              [
                -7.664583333,
                55.375
              ],
              [
                -7.673958333,
                55.375
              ],
              [
                -7.673958333,
                55.376041667
              ],
              [
                -7.679166667,
                55.376041667
              ],
              [
                -7.679166667,
                55.373958333
              ],
              [
                -7.685416667,
                55.373958333
              ],
              [
                -7.685416667,
                55.372916667
              ],
              [
                -7.689583333,
                55.372916667
              ],
              [
                -7.689583333,
                55.371875
              ],
              [
                -7.692708333,
                55.371875
              ],
              [
                -7.692708333,
                55.370833333
              ],
              [
                -7.7,
                55.370833333
              ],
              [
                -7.7,
                55.55
              ],
              [
                -7.4,
                55.55
              ],
              [
                -7.4,
                55.429166667
              ],
              [
                -7.405208333,
                55.429166667
              ],
              [
                -7.405208333,
                55.430208333
              ],
              [
                -7.410416667,
                55.430208333
              ],
              [
                -7.410416667,
                55.43125
              ],
              [
                -7.415625,
                55.43125
              ],
              [
                -7.415625,
                55.432291667
              ]
            ],
            [
              [
                -7.434375,
                55.438541667
              ],
              [
                -7.435416667,
                55.438541667
              ],
              [
                -7.435416667,
                55.436458333
              ],
              [
                -7.432291667,
                55.436458333
              ],
              [
                -7.432291667,
                55.4375
              ],
              [
                -7.434375,
                55.4375
              ],
              [
                -7.434375,
                55.438541667
              ]
            ],
            [
              [
                -7.629166667,
                55.434375
              ],
              [
                -7.623958333,
                55.434375
              ],
              [
                -7.623958333,
                55.436458333
              ],
              [
                -7.625,
                55.436458333
              ],
              [
                -7.625,
                55.4375
              ],
              [
                -7.627083333,
                55.4375
              ],
              [
                -7.627083333,
                55.436458333
              ],
              [
                -7.629166667,
                55.436458333
              ],
              [
                -7.629166667,
                55.434375
              ]
            ],
            [
              [
                -7.461458333,
                55.435416667
              ],
              [
                -7.465625,
                55.435416667
              ],
              [
                -7.465625,
                55.434375
              ],
              [
                -7.461458333,
                55.434375
              ],
              [
                -7.461458333,
                55.435416667
              ]
            ],
            [
              [
                -7.644791667,
                55.43125
              ],
              [
                -7.642708333,
                55.43125
              ],
              [
                -7.642708333,
                55.432291667
              ],
              [
                -7.647916667,
                55.432291667
              ],
              [
                -7.647916667,
                55.43125
              ],
              [
                -7.648958333,
                55.43125
              ],
              [
                -7.648958333,
                55.430208333
              ],
              [
                -7.652083333,
                55.430208333
              ],
              [
                -7.652083333,
                55.428125
              ],
              [
                -7.65,
                55.428125
              ],
              [
                -7.65,
                55.429166667
              ],
              [
                -7.645833333,
                55.429166667
              ],
              [
                -7.645833333,
                55.430208333
              ],
              [
                -7.644791667,
                55.430208333
              ],
              [
                -7.644791667,
                55.43125
              ]
            ],
            [
              [
                -7.55,
                55.432291667
              ],
              [
                -7.551041667,
                55.432291667
              ],
              [
                -7.551041667,
                55.43125
              ],
              [
                -7.55,
                55.43125
              ],
              [
                -7.55,
                55.432291667
              ]
            ],
            [
              [
                -7.555208333,
                55.43125
              ],
              [
                -7.557291667,
                55.43125
              ],
              [
                -7.557291667,
                55.430208333
              ],
              [
                -7.555208333,
                55.430208333
              ],
              [
                -7.555208333,
                55.43125
              ]
            ],
            [
              [
                -7.551041667,
                55.429166667
              ],
              [
                -7.554166667,
                55.429166667
              ],
              [
                -7.554166667,
                55.428125
              ],
              [
                -7.551041667,
                55.428125
              ],
              [
                -7.551041667,
                55.429166667
              ]
            ],
            [
              [
                -7.653125,
                55.428125
              ],
              [
                -7.654166667,
                55.428125
              ],
              [
                -7.654166667,
                55.427083333
              ],
              [
                -7.653125,
                55.427083333
              ],
              [
                -7.653125,
                55.428125
              ]
            ],
            [
              [
                -7.551041667,
                55.423958333
              ],
              [
                -7.547916667,
                55.423958333
              ],
              [
                -7.547916667,
                55.425
              ],
              [
                -7.545833333,
                55.425
              ],
              [
                -7.545833333,
                55.427083333
              ],
              [
                -7.547916667,
                55.427083333
              ],
              [
                -7.547916667,
                55.426041667
              ],
              [
                -7.551041667,
                55.426041667
              ],
              [
                -7.551041667,
                55.423958333
              ]
            ],
            [
              [
                -7.64375,
                55.392708333
              ],
              [
                -7.644791667,
                55.392708333
              ],
              [
                -7.644791667,
                55.391666667
              ],
              [
                -7.64375,
                55.391666667
              ],
              [
                -7.64375,
                55.392708333
              ]
            ]
          ]
        ]
      },
      "properties": {
        "role": "deepwater_reference",
        "selection": "coarse depth >50 m outside reporting",
        "source": "/Users/andrei/oceanstream/sd-data-ingest/.cache/coastal/bathy/donegal/emodnet_mean_depth.tif",
        "reflectance_inspected_for_selection": false,
        "is_provisional": true,
        "coordinate_precision_degrees": 1e-09
      }
    }
  ]
}
