{
"type": "FeatureCollection",
"name": "habitat_aoi",
"crs": { "type": "name", "properties": { "name": "urn:ogc:def:crs:OGC:1.3:CRS84" } },
"features": [
{ "type": "Feature", "properties": { "role": "habitat_aoi", "provenance": "DIVE_BBOX_LONLAT, previously hardcoded in slide_gallery.py", "note": "PROVISIONAL. A rectangle around the dive area, not a surveyed reef boundary. Replace with a CCMAR habitat polygon before reporting area-based results.", "is_provisional": true }, "geometry": { "type": "Polygon", "coordinates": [ [ [ -9.192, 38.4 ], [ -9.192, 38.42 ], [ -9.212, 38.42 ], [ -9.212, 38.4 ], [ -9.192, 38.4 ] ] ] } }
]
}
