{
  "type": "FeatureCollection",
  "features": [
    {
      "type": "Feature",
      "geometry": {
        "type": "Polygon",
        "coordinates": [
          [
            [
              -9.15,
              38.39
            ],
            [
              -9.15,
              38.43
            ],
            [
              -9.24,
              38.43
            ],
            [
              -9.24,
              38.39
            ],
            [
              -9.15,
              38.39
            ]
          ]
        ]
      },
      "properties": {
        "region_id": "sesimbra_local",
        "source": "existing screening_bbox",
        "is_exploratory": true,
        "new_heldout_date_required": true
      }
    }
  ]
}
