{
"type": "FeatureCollection",
"name": "deepwater_reference",
"crs": { "type": "name", "properties": { "name": "urn:ogc:def:crs:OGC:1.3:CRS84" } },
"features": [
{ "type": "Feature", "properties": { "role": "deepwater_reference", "patch_id": "dw_01", "centre_lon": -9.210937, "centre_lat": 38.383854, "dtm_depth_m": 122.0, "distance_from_habitat_km": 3.08, "provenance": "geometry+depth rules only; reflectance not inspected", "selection_rules": { "min_depth_m": 100.0, "max_depth_m": 500.0, "min_distance_from_land_km": 3.0, "min_distance_from_habitat_km": 2.0, "patch_size_m": 1000.0 } }, "geometry": { "type": "Polygon", "coordinates": [ [ [ -9.206445944125042, 38.379362610791709 ], [ -9.206445944125042, 38.388345722541622 ], [ -9.215429055874951, 38.388345722541622 ], [ -9.215429055874951, 38.379362610791709 ], [ -9.206445944125042, 38.379362610791709 ] ] ] } },
{ "type": "Feature", "properties": { "role": "deepwater_reference", "patch_id": "dw_02", "centre_lon": -9.286979, "centre_lat": 38.407812, "dtm_depth_m": 407.8, "distance_from_habitat_km": 9.46, "provenance": "geometry+depth rules only; reflectance not inspected", "selection_rules": { "min_depth_m": 100.0, "max_depth_m": 500.0, "min_distance_from_land_km": 3.0, "min_distance_from_habitat_km": 2.0, "patch_size_m": 1000.0 } }, "geometry": { "type": "Polygon", "coordinates": [ [ [ -9.282487610791708, 38.403320944125042 ], [ -9.282487610791708, 38.412304055874955 ], [ -9.291470722541618, 38.412304055874955 ], [ -9.291470722541618, 38.403320944125042 ], [ -9.282487610791708, 38.403320944125042 ] ] ] } },
{ "type": "Feature", "properties": { "role": "deepwater_reference", "patch_id": "dw_03", "centre_lon": -9.094271, "centre_lat": 38.340104, "dtm_depth_m": 233.7, "distance_from_habitat_km": 14.3, "provenance": "geometry+depth rules only; reflectance not inspected", "selection_rules": { "min_depth_m": 100.0, "max_depth_m": 500.0, "min_distance_from_land_km": 3.0, "min_distance_from_habitat_km": 2.0, "patch_size_m": 1000.0 } }, "geometry": { "type": "Polygon", "coordinates": [ [ [ -9.089779277458376, 38.335612610791706 ], [ -9.089779277458376, 38.344595722541619 ], [ -9.098762389208286, 38.344595722541619 ], [ -9.098762389208286, 38.335612610791706 ], [ -9.089779277458376, 38.335612610791706 ] ] ] } },
{ "type": "Feature", "properties": { "role": "deepwater_reference", "patch_id": "dw_04", "centre_lon": -9.015104, "centre_lat": 38.388021, "dtm_depth_m": 100.4, "distance_from_habitat_km": 20.95, "provenance": "geometry+depth rules only; reflectance not inspected", "selection_rules": { "min_depth_m": 100.0, "max_depth_m": 500.0, "min_distance_from_land_km": 3.0, "min_distance_from_habitat_km": 2.0, "patch_size_m": 1000.0 } }, "geometry": { "type": "Polygon", "coordinates": [ [ [ -9.010612610791709, 38.383529277458372 ], [ -9.010612610791709, 38.392512389208285 ], [ -9.019595722541618, 38.392512389208285 ], [ -9.019595722541618, 38.383529277458372 ], [ -9.010612610791709, 38.383529277458372 ] ] ] } },
{ "type": "Feature", "properties": { "role": "deepwater_reference", "patch_id": "dw_05", "centre_lon": -9.091146, "centre_lat": 38.201562, "dtm_depth_m": 377.2, "distance_from_habitat_km": 26.28, "provenance": "geometry+depth rules only; reflectance not inspected", "selection_rules": { "min_depth_m": 100.0, "max_depth_m": 500.0, "min_distance_from_land_km": 3.0, "min_distance_from_habitat_km": 2.0, "patch_size_m": 1000.0 } }, "geometry": { "type": "Polygon", "coordinates": [ [ [ -9.086654277458376, 38.197070944125038 ], [ -9.086654277458376, 38.206054055874951 ], [ -9.095637389208285, 38.206054055874951 ], [ -9.095637389208285, 38.197070944125038 ], [ -9.086654277458376, 38.197070944125038 ] ] ] } },
{ "type": "Feature", "properties": { "role": "deepwater_reference", "patch_id": "dw_06", "centre_lon": -8.947396, "centre_lat": 38.320312, "dtm_depth_m": 109.7, "distance_from_habitat_km": 30.05, "provenance": "geometry+depth rules only; reflectance not inspected", "selection_rules": { "min_depth_m": 100.0, "max_depth_m": 500.0, "min_distance_from_land_km": 3.0, "min_distance_from_habitat_km": 2.0, "patch_size_m": 1000.0 } }, "geometry": { "type": "Polygon", "coordinates": [ [ [ -8.942904277458375, 38.315820944125043 ], [ -8.942904277458375, 38.324804055874957 ], [ -8.951887389208284, 38.324804055874957 ], [ -8.951887389208284, 38.315820944125043 ], [ -8.942904277458375, 38.315820944125043 ] ] ] } },
{ "type": "Feature", "properties": { "role": "deepwater_reference", "patch_id": "dw_07", "centre_lon": -8.976562, "centre_lat": 38.194271, "dtm_depth_m": 131.8, "distance_from_habitat_km": 34.73, "provenance": "geometry+depth rules only; reflectance not inspected", "selection_rules": { "min_depth_m": 100.0, "max_depth_m": 500.0, "min_distance_from_land_km": 3.0, "min_distance_from_habitat_km": 2.0, "patch_size_m": 1000.0 } }, "geometry": { "type": "Polygon", "coordinates": [ [ [ -8.972070944125042, 38.189779277458371 ], [ -8.972070944125042, 38.198762389208284 ], [ -8.981054055874951, 38.198762389208284 ], [ -8.981054055874951, 38.189779277458371 ], [ -8.972070944125042, 38.189779277458371 ] ] ] } },
{ "type": "Feature", "properties": { "role": "deepwater_reference", "patch_id": "dw_08", "centre_lon": -8.893229, "centre_lat": 38.154687, "dtm_depth_m": 114.0, "distance_from_habitat_km": 44.6, "provenance": "geometry+depth rules only; reflectance not inspected", "selection_rules": { "min_depth_m": 100.0, "max_depth_m": 500.0, "min_distance_from_land_km": 3.0, "min_distance_from_habitat_km": 2.0, "patch_size_m": 1000.0 } }, "geometry": { "type": "Polygon", "coordinates": [ [ [ -8.88873761079171, 38.150195944125038 ], [ -8.88873761079171, 38.159179055874951 ], [ -8.897720722541619, 38.159179055874951 ], [ -8.897720722541619, 38.150195944125038 ], [ -8.88873761079171, 38.150195944125038 ] ] ] } }
]
}
